{
"type": "FeatureCollection",
"name": "georgia-buffer",
"crs": { "type": "name", "properties": { "name": "urn:ogc:def:crs:OGC:1.3:CRS84" } },
"features": [
{ "type": "Feature", "properties": { }, "geometry": { "type": "Polygon", "coordinates": [ [ [ -86.146261073870633, 34.922802862393787 ], [ -86.150648931255461, 35.013289257408509 ], [ -86.132907615648008, 35.102664824444865 ], [ -86.093685382667942, 35.187300833886724 ], [ -86.034513318174263, 35.263749108448735 ], [ -85.957753191992367, 35.328884241204207 ], [ -85.866508225762303, 35.380034330215814 ], [ -85.764499192982342, 35.415094284491566 ], [ -85.655910442821138, 35.432616270327308 ], [ -83.629224912619705, 35.43717300875366 ], [ -83.068707945871893, 35.450122746999583 ], [ -82.860636705836782, 35.402756618443661 ], [ -82.691242242272708, 35.293249458613353 ], [ -82.605700175713167, 35.180302153243119 ], [ -82.572854616578866, 35.09566435419034 ], [ -82.562904080262712, 34.962932225565403 ], [ -82.589717222500781, 34.855951704209133 ], [ -82.47255304869465, 34.776723522342721 ], [ -82.408252659422828, 34.705913416074331 ], [ -82.221754837604692, 34.364868519249946 ], [ -82.145759533856747, 34.267900397207519 ], [ -81.938002325303259, 34.135678948251702 ], [ -81.763213270473074, 33.944068842777618 ], [ -81.502459228210398, 33.741408134227484 ], [ -81.447529018845174, 33.669563756466069 ], [ -81.399608504165982, 33.554833509831177 ], [ -81.33587966501122, 33.475841822680067 ], [ -81.158939304069321, 33.36178426499584 ], [ -81.057520280786306, 33.267225295975713 ], [ -81.009350137352428, 33.192494993239372 ], [ -80.972637783926743, 33.080554068175225 ], [ -80.907661139361309, 32.958265659688884 ], [ -80.886804320513193, 32.852748581655966 ], [ -80.728306862604128, 32.682815156793502 ], [ -80.614299001848252, 32.430610788366039 ], [ -80.507037137262515, 32.373221161820759 ], [ -80.431454196950355, 32.308564053611804 ], [ -80.372816401078069, 32.232302239439491 ], [ -80.333488494811064, 32.147570460648758 ], [ -80.313872405030523, 32.012247202728709 ], [ -80.345677840836174, 31.848298138709826 ], [ -80.411382934634602, 31.73460773480981 ], [ -80.616594247641331, 31.538708625458344 ], [ -80.695844114427672, 31.335119590449509 ], [ -80.737746945305929, 31.267726534777879 ], [ -80.796833857075171, 31.074453237966715 ], [ -80.882843854246957, 30.939564382089515 ], [ -80.887885052463261, 30.841237441851003 ], [ -80.955554884879959, 30.551398762576085 ], [ -81.028618345191475, 30.437115469397391 ], [ -81.097025510297144, 30.37309920304866 ], [ -81.178282199939304, 30.321646494311349 ], [ -81.317546964844666, 30.272043360572205 ], [ -81.416965360763641, 30.259139898607451 ], [ -81.535577734347811, 30.265305758796416 ], [ -81.603745006371582, 30.126008186084324 ], [ -81.668643777084299, 30.055329130899658 ], [ -81.748355318966446, 29.997283050648591 ], [ -81.88858376913565, 29.93879055493775 ], [ -82.082000755102499, 29.909741190041579 ], [ -82.26393416621589, 29.923397195527315 ], [ -82.407103427681292, 29.962908552212387 ], [ -82.53140638905073, 30.036395169052419 ], [ -82.629197806594519, 30.142194347399137 ], [ -84.937110113294096, 30.265512750229661 ], [ -85.127071613916854, 30.32265111200158 ], [ -85.245343000528763, 30.404463715094629 ], [ -85.389846754904326, 30.580916232235815 ], [ -85.522792680188019, 30.913363714517359 ], [ -85.591839499094093, 31.016176610486031 ], [ -85.620573709886784, 31.097378626113606 ], [ -85.630046977197807, 31.300808578214269 ], [ -85.595916767895332, 31.493870971806739 ], [ -85.645433988035364, 31.625056618100274 ], [ -85.669093929185863, 31.845683069740748 ], [ -85.644108497463179, 31.977293353884058 ], [ -85.585273663782431, 32.096184973728107 ], [ -85.577491329750302, 32.225520399654513 ], [ -85.537856662853542, 32.32664183481134 ], [ -85.536683348049124, 32.369619136398931 ], [ -85.710177941086641, 32.787261400105201 ], [ -86.146261073870633, 34.922802862393787 ] ] ] } }
]
}
